{
  "type": "FeatureCollection",
  "features": [
    {
      "type": "Feature",
      "properties": {
        "norad_id": 28899,
        "name": "INMARSAT 4-F2 (SOUTHPAN/PRN 122)",
        "group": "gnss",
        "lat": 3.171852671166586,
        "lon": -176.9679460362024,
        "alt_km": 35785.229748866856,
        "timestamp": "2025-12-19T20:43:00.327402+00:00",
        "meta_object_name": "INMARSAT 4-F2 (SOUTHPAN/PRN 122)",
        "meta_object_id": "2005-044A",
        "meta_epoch": "2025-12-18T22:32:16.506816",
        "meta_mean_motion": 1.00272525,
        "meta_eccentricity": 0.00024643,
        "meta_inclination": 4.8591,
        "meta_ra_of_asc_node": 43.7031,
        "meta_arg_of_pericenter": 227.4907,
        "meta_mean_anomaly": 298.1734,
        "meta_ephemeris_type": 0,
        "meta_classification_type": "U",
        "meta_norad_cat_id": 28899,
        "meta_element_set_no": 999,
        "meta_rev_at_epoch": 7371,
        "meta_bstar": 0,
        "meta_mean_motion_dot": -2.4e-06,
        "meta_mean_motion_ddot": 0,
        "tle_line1": "1 28899U 05044A   25352.93907994 -.00000240  00000+0  00000+0 0  9991",
        "tle_line2": "2 28899   4.8591  43.7031 0002464 227.4907 298.1734  1.00272525 73716"
      },
      "geometry": {
        "type": "Point",
        "coordinates": [
          -176.9679460362024,
          3.171852671166586
        ]
      }
    },
    {
      "type": "Feature",
      "properties": {
        "norad_id": 29486,
        "name": "GPS BIIRM-2 (PRN 31)",
        "group": "gnss",
        "lat": -52.668274738202896,
        "lon": 46.81651904444653,
        "alt_km": 20446.5631707087,
        "timestamp": "2025-12-19T20:43:00.327416+00:00",
        "meta_object_name": "GPS BIIRM-2 (PRN 31)",
        "meta_object_id": "2006-042A",
        "meta_epoch": "2025-12-18T13:15:57.668256",
        "meta_mean_motion": 2.00553965,
        "meta_eccentricity": 0.01073199,
        "meta_inclination": 54.6948,
        "meta_ra_of_asc_node": 158.5101,
        "meta_arg_of_pericenter": 52.102,
        "meta_mean_anomaly": 339.2959,
        "meta_ephemeris_type": 0,
        "meta_classification_type": "U",
        "meta_norad_cat_id": 29486,
        "meta_element_set_no": 999,
        "meta_rev_at_epoch": 14077,
        "meta_bstar": 0,
        "meta_mean_motion_dot": 7.3e-07,
        "meta_mean_motion_ddot": 0,
        "tle_line1": "1 29486U 06042A   25352.55275079  .00000073  00000+0  00000+0 0  9996",
        "tle_line2": "2 29486  54.6948 158.5101 0107319  52.1020 339.2959  2.00553965140773"
      },
      "geometry": {
        "type": "Point",
        "coordinates": [
          46.81651904444653,
          -52.668274738202896
        ]
      }
    },
    {
      "type": "Feature",
      "properties": {
        "norad_id": 29601,
        "name": "GPS BIIRM-3 (PRN 12)",
        "group": "gnss",
        "lat": -35.454233288728226,
        "lon": -168.8254857097721,
        "alt_km": 20342.416869489167,
        "timestamp": "2025-12-19T20:43:00.327429+00:00",
        "meta_object_name": "GPS BIIRM-3 (PRN 12)",
        "meta_object_id": "2006-052A",
        "meta_epoch": "2025-12-18T22:17:39.799968",
        "meta_mean_motion": 2.00574079,
        "meta_eccentricity": 0.0087942,
        "meta_inclination": 54.9692,
        "meta_ra_of_asc_node": 221.1525,
        "meta_arg_of_pericenter": 87.5066,
        "meta_mean_anomaly": 273.5974,
        "meta_ephemeris_type": 0,
        "meta_classification_type": "U",
        "meta_norad_cat_id": 29601,
        "meta_element_set_no": 999,
        "meta_rev_at_epoch": 13979,
        "meta_bstar": 0,
        "meta_mean_motion_dot": 7.7e-07,
        "meta_mean_motion_ddot": 0,
        "tle_line1": "1 29601U 06052A   25352.92893287  .00000077  00000+0  00000+0 0  9998",
        "tle_line2": "2 29601  54.9692 221.1525 0087942  87.5066 273.5974  2.00574079139795"
      },
      "geometry": {
        "type": "Point",
        "coordinates": [
          -168.8254857097721,
          -35.454233288728226
        ]
      }
    },
    {
      "type": "Feature",
      "properties": {
        "norad_id": 32260,
        "name": "GPS BIIRM-4 (PRN 15)",
        "group": "gnss",
        "lat": 53.57653398893852,
        "lon": -172.6679553366691,
        "alt_km": 19747.73699034338,
        "timestamp": "2025-12-19T20:43:00.327443+00:00",
        "meta_object_name": "GPS BIIRM-4 (PRN 15)",
        "meta_object_id": "2007-047A",
        "meta_epoch": "2025-12-18T05:42:28.689120",
        "meta_mean_motion": 2.0056436,
        "meta_eccentricity": 0.01640962,
        "meta_inclination": 53.959,
        "meta_ra_of_asc_node": 87.5314,
        "meta_arg_of_pericenter": 85.3192,
        "meta_mean_anomaly": 276.5459,
        "meta_ephemeris_type": 0,
        "meta_classification_type": "U",
        "meta_norad_cat_id": 32260,
        "meta_element_set_no": 999,
        "meta_rev_at_epoch": 13318,
        "meta_bstar": 0,
        "meta_mean_motion_dot": -4.8e-07,
        "meta_mean_motion_ddot": 0,
        "tle_line1": "1 32260U 07047A   25352.23783205 -.00000048  00000+0  00000+0 0  9999",
        "tle_line2": "2 32260  53.9590  87.5314 0164096  85.3192 276.5459  2.00564360133188"
      },
      "geometry": {
        "type": "Point",
        "coordinates": [
          -172.6679553366691,
          53.57653398893852
        ]
      }
    },
    {
      "type": "Feature",
      "properties": {
        "norad_id": 32275,
        "name": "COSMOS 2433 (720)",
        "group": "gnss",
        "lat": 21.21425767823321,
        "lon": 131.84273254692818,
        "alt_km": 19129.483442644465,
        "timestamp": "2025-12-19T20:43:00.327456+00:00",
        "meta_object_name": "COSMOS 2433 (720)",
        "meta_object_id": "2007-052A",
        "meta_epoch": "2025-12-19T04:33:13.000320",
        "meta_mean_motion": 2.13104199,
        "meta_eccentricity": 0.0005237,
        "meta_inclination": 65.6796,
        "meta_ra_of_asc_node": 321.9886,
        "meta_arg_of_pericenter": 255.1824,
        "meta_mean_anomaly": 104.7517,
        "meta_ephemeris_type": 0,
        "meta_classification_type": "U",
        "meta_norad_cat_id": 32275,
        "meta_element_set_no": 999,
        "meta_rev_at_epoch": 14122,
        "meta_bstar": 0,
        "meta_mean_motion_dot": -5.9e-07,
        "meta_mean_motion_ddot": 0,
        "tle_line1": "1 32275U 07052A   25353.18973380 -.00000059  00000+0  00000+0 0  9993",
        "tle_line2": "2 32275  65.6796 321.9886 0005237 255.1824 104.7517  2.13104199141226"
      },
      "geometry": {
        "type": "Point",
        "coordinates": [
          131.84273254692818,
          21.21425767823321
        ]
      }
    },
    {
      "type": "Feature",
      "properties": {
        "norad_id": 32276,
        "name": "COSMOS 2432 (719)",
        "group": "gnss",
        "lat": 63.39475102251546,
        "lon": 77.65978688443369,
        "alt_km": 19147.43544013103,
        "timestamp": "2025-12-19T20:43:00.327470+00:00",
        "meta_object_name": "COSMOS 2432 (719)",
        "meta_object_id": "2007-052B",
        "meta_epoch": "2025-12-19T05:46:36.242400",
        "meta_mean_motion": 2.13103325,
        "meta_eccentricity": 0.0011333,
        "meta_inclination": 65.6954,
        "meta_ra_of_asc_node": 322.1112,
        "meta_arg_of_pericenter": 313.5776,
        "meta_mean_anomaly": 29.8989,
        "meta_ephemeris_type": 0,
        "meta_classification_type": "U",
        "meta_norad_cat_id": 32276,
        "meta_element_set_no": 999,
        "meta_rev_at_epoch": 14124,
        "meta_bstar": 0,
        "meta_mean_motion_dot": -5.9e-07,
        "meta_mean_motion_ddot": 0,
        "tle_line1": "1 32276U 07052B   25353.24069725 -.00000059  00000+0  00000+0 0  9990",
        "tle_line2": "2 32276  65.6954 322.1112 0011333 313.5776  29.8989  2.13103325141249"
      },
      "geometry": {
        "type": "Point",
        "coordinates": [
          77.65978688443369,
          63.39475102251546
        ]
      }
    },
    {
      "type": "Feature",
      "properties": {
        "norad_id": 32384,
        "name": "GPS BIIRM-5 (PRN 29)",
        "group": "gnss",
        "lat": -35.74232849494262,
        "lon": 131.35936009251753,
        "alt_km": 20146.314628912594,
        "timestamp": "2025-12-19T20:43:00.327482+00:00",
        "meta_object_name": "GPS BIIRM-5 (PRN 29)",
        "meta_object_id": "2007-062A",
        "meta_epoch": "2025-12-19T04:08:10.010976",
        "meta_mean_motion": 2.00577702,
        "meta_eccentricity": 0.00322663,
        "meta_inclination": 55.1765,
        "meta_ra_of_asc_node": 281.388,
        "meta_arg_of_pericenter": 162.2119,
        "meta_mean_anomaly": 283.9132,
        "meta_ephemeris_type": 0,
        "meta_classification_type": "U",
        "meta_norad_cat_id": 32384,
        "meta_element_set_no": 999,
        "meta_rev_at_epoch": 13190,
        "meta_bstar": 0,
        "meta_mean_motion_dot": -3.8e-07,
        "meta_mean_motion_ddot": 0,
        "tle_line1": "1 32384U 07062A   25353.17233809 -.00000038  00000+0  00000+0 0  9996",
        "tle_line2": "2 32384  55.1765 281.3880 0032266 162.2119 283.9132  2.00577702131904"
      },
      "geometry": {
        "type": "Point",
        "coordinates": [
          131.35936009251753,
          -35.74232849494262
        ]
      }
    }
  ]
}